{"spkid": "20484402", "covariance": {"elements": [{"label": "e", "title": "eccentricity", "value": ".2348103347136048", "units": null, "sigma": 3.3978974448923e-08, "name": "e"}, {"title": "perihelion distance", "value": ".9082604669902602", "units": "au", "sigma": 3.87395090638844e-08, "name": "q", "label": "q"}, {"name": "tp", "sigma": 1.3972731838332e-05, "value": "2457342.314451540148", "title": "time of perihelion passage", "units": "TDB", "label": "tp"}, {"name": "om", "sigma": 2.52448770537332e-06, "units": "deg", "title": "longitude of the ascending node", "value": "91.3067852951619", "label": "node"}, {"title": "argument of perihelion", "value": "58.28600108520726", "units": "deg", "sigma": 1.0103485688943e-05, "name": "w", "label": "peri"}, {"name": "i", "sigma": 9.93136411067221e-06, "units": "deg", "title": "inclination", "value": "27.42890159697249", "label": "i"}], "data": [["1.154570704600561E-15", "-1.316082693689791E-15", "4.409147550709402E-13", "-2.936622887351223E-16", "3.128091165169241E-13", "-9.003451948207093E-14"], ["-1.316082693689791E-15", "1.500749562510783E-15", "-4.9952869920459E-13", "2.875272005220735E-16", "-3.560091967002168E-13", "1.038626673079758E-13"], ["4.409147550709402E-13", "-4.9952869920459E-13", "1.952372350259355E-10", "7.148773544635933E-13", "1.330478655344096E-10", "-3.152970738011279E-11"], ["-2.936622887351223E-16", "2.875272005220735E-16", "7.148773544635933E-13", "6.373038174581033E-12", "-4.845039307754538E-12", "-7.231333338656336E-12"], ["3.128091165169241E-13", "-3.560091967002168E-13", "1.330478655344096E-10", "-4.845039307754538E-12", "1.020804230666768E-10", "-2.108117875922263E-11"], ["-9.003451948207093E-14", "1.038626673079758E-13", "-3.152970738011279E-11", "-7.231333338656336E-12", "-2.108117875922263E-11", "9.863199309874794E-11"]], "labels": ["e", "q", "tp", "node", "peri", "i"], "epoch": "2457426.5"}, "elements": [{"label": "e", "name": "e", "sigma": "3.3899E-8", "title": "eccentricity", "value": ".2348669856352364", "units": null}, {"title": "semi-major axis", "value": "1.187093189064927", "units": "au", "name": "a", "sigma": "2.1843E-9", "label": "a"}, {"title": "perihelion distance", "value": ".9082841900811282", "units": "au", "name": "q", "sigma": "3.8729E-8", "label": "q"}, {"sigma": "9.9307E-6", "name": "i", "title": "inclination; angle with respect to x-y ecliptic plane", "value": "27.42847160695773", "units": "deg", "label": "i"}, {"value": "91.26582383866113", "title": "longitude of the ascending node", "units": "deg", "sigma": "2.5215E-6", "name": "om", "label": "node"}, {"label": "peri", "name": "w", "sigma": "1.0121E-5", "units": "deg", "title": "argument of perihelion", "value": "58.32077972531737"}, {"units": "deg", "title": "mean anomaly", "value": "60.26431554525659", "name": "ma", "sigma": "1.8903E-5", "label": "M"}, {"label": "tp", "units": "TDB", "title": "time of perihelion passage", "value": "2461121.416956566994", "name": "tp", "sigma": "2.4589E-5"}, {"units": "d", "title": "sidereal orbital period", "value": "472.4171406958419", "name": "per", "sigma": "1.3039E-6", "label": "period"}, {"label": "n", "name": "n", "sigma": "2.1033E-9", "units": "deg/d", "title": "mean motion", "value": ".7620383957062646"}, {"title": "aphelion distance", "value": "1.465902188048727", "units": "au", "sigma": "2.6973E-9", "name": "ad", "label": "Q"}], "epoch": "2461200.5"}